[{"OBJECT_NAME":"IRIDIUM 113","OBJECT_ID":"2017-039A","EPOCH":"2026-03-09T21:21:34.497504","MEAN_MOTION":14.34222091,"ECCENTRICITY":0.00022411,"INCLINATION":86.4028,"RA_OF_ASC_NODE":3.6669,"ARG_OF_PERICENTER":81.1883,"MEAN_ANOMALY":278.9567,"EPHEMERIS_TYPE":0,"CLASSIFICATION_TYPE":"U","NORAD_CAT_ID":42803,"ELEMENT_SET_NO":999,"REV_AT_EPOCH":45695,"BSTAR":0.00014821747,"MEAN_MOTION_DOT":4.35e-6,"MEAN_MOTION_DDOT":0},{"OBJECT_NAME":"FENGYUN 1C DEB","OBJECT_ID":"1999-025DUD","EPOCH":"2026-03-09T12:14:24.597888","MEAN_MOTION":14.35247139,"ECCENTRICITY":0.00182107,"INCLINATION":99.2857,"RA_OF_ASC_NODE":177.1076,"ARG_OF_PERICENTER":265.7667,"MEAN_ANOMALY":94.1435,"EPHEMERIS_TYPE":0,"CLASSIFICATION_TYPE":"U","NORAD_CAT_ID":36204,"ELEMENT_SET_NO":999,"REV_AT_EPOCH":95672,"BSTAR":0.0013494945,"MEAN_MOTION_DOT":3.821e-5,"MEAN_MOTION_DDOT":0}]
